#dP2024  2  7  0  0  0.00000000      96 __u+U IGS20 FIT  IAC
## 2300 259200.00000000   900.00000000 60347 0.0000000000000
+  131   C01C02C03C04C05C06C07C08C09C10C11C12C13C14C16C19C20
+        C21C22C23C24C25C26C27C28C29C30C32C33C34C35C36C37C38
+        C39C40C41C42C43C44C45C46C59C60E02E03E04E05E07E08E09
+        E10E11E12E13E14E15E18E19E21E24E25E26E27E30E31E33E34
+        E36G01G02G03G04G05G06G07G08G09G10G11G12G13G14G15G16
+        G17G18G19G20G21G22G23G24G25G26G27G28G29G30G31G32J02
+        J03J04J07R01R02R03R04R05R06R07R08R09R10R11R12R13R14
+        R15R16R17R18R19R20R21R22R23R24R25R26  0  0  0  0  0
++        17 17 18 17 16  9  9 10  9  9  9  9  9  9  9  7  8
++         7  7  7  7  7  7  7  7  7  7  7  7  7  7  8  7  8
++         8  8  7  7  7  7  7  8  0 17  4  4  5  4  4  4  4
++         5  5  5  4  4  4  5  5  4  4  4  4  4  5  5  4  4
++         5  4  4  4  4  4  4  4  4  4  4  4  3  4  4  4  4
++         4  4  4  4  4  4  4  4  3  4  4  4  4  4  3  4  8
++         9  9 17  8  6  6  6  6 15  6  6  6 15  6  6  7  6
++         6  6  6  6  7  7  6  6 15  6  8  9  0  0  0  0  0
%c M  cc GPS ccc cccc cccc cccc cccc ccccc ccccc ccccc ccccc
%c cc cc ccc ccc cccc cccc cccc cccc ccccc ccccc ccccc ccccc
%f  0.0000000  0.000000000  0.00000000000  0.000000000000000
%f  0.0000000  0.000000000  0.00000000000  0.000000000000000
%i    0    0    0    0      0      0      0      0         0
%i    0    0    0    0      0      0      0      0         0
/* INFORMATION & ANALYSIS CENTER (IAC)            RAPID DATA
/* S/V CLOCKS ARE ALIGNED TO GNSS TIME                      
/* G:C1WC2W R:C1PC2P E:C1XC5X C:C2IC6I J:C1CC2S             
/* PCV:IGS20_2290 OL/AL:FES2004  NONE     YN ORB:CoN CLK:CoN
*  2024 02 07  8 30  0.00000000
PC01 -34374.749190  24437.265996   -493.867155    883.982947
PC02   4399.618559  41863.802623  -1649.218060    406.959599
PC03 -14702.470671  39464.613313   -948.237651    -48.129741
PC04 -39679.034905  14337.049564    -44.214803    873.506179
PC05  21847.437985  35992.115803  -1475.769084   -683.074672
PC06  -6717.210139  39436.252552 -12810.032370     94.635638
PC07  -7262.805867  26683.335318  31915.897898   -762.084099
PC08 -20289.613379  29786.982763 -22054.739849     56.653840
PC09  -1404.309276  41648.064108  -3069.406833   -456.986526
PC10   1124.953129  28680.021175  31311.591835     95.018731
PC11  17151.670245   5516.934741 -21240.309085    397.981260
PC12  14443.117781  22542.670320  -7822.118994    775.927076
PC13 -11711.438684  29866.274433 -27337.641721    415.143787
PC14  27783.997566   2080.530788   2064.130726    136.161945
PC16  -7385.724586  38660.710209 -14355.404016   -325.555481
PC19 -25291.403932   4239.756980 -10951.931553   -929.217381
PC20 -26366.627951  -7179.736239   5597.172501   -139.214966
PC21  11515.886488  15313.320615 -20278.742907   -962.616490
PC22  -9579.810124  13910.765300 -22208.490864   -118.808056
PC23  14727.746901 -23456.757367  -3386.532719   -782.978905
PC24  15479.429290   6306.934682  22320.121043    861.941097
PC25  20954.352552 -13073.449663  12953.944267    320.295122
PC26   1523.253376  20760.032302  18580.138396   -245.718848
PC27 -10123.369505 -26004.802041   -703.552620    267.727943
PC28   2113.051378 -23190.381166 -15375.397780    203.530186
PC29 -15100.547637   5488.425962  22812.758644    238.525578
PC30 -18274.465801 -15071.657914  14765.999194    -22.429999
PC32 -11486.812385 -15266.901684  20354.463606   -564.037930
PC33  25329.605955  -4376.428440  10890.869028   -947.047630
PC34  18478.726983  13588.957325 -15887.341879    364.018825
PC35  -1376.320821  23201.573451  15403.778623    439.342301
PC36 -21277.848076  12133.472219 -13371.026967    -23.839368
PC37   -690.165483 -21006.484697 -18343.288687   -934.822566
PC38 -25130.384880  30863.867282 -14060.109506    135.299292
PC39  -9887.130684  34999.959294 -21078.391289     -7.016935
PC40 -11744.416134  20283.290954  35035.153783    -55.425249
PC41  10448.229269 -13743.662738  21984.381285   -887.710090
PC42  25791.726513   8014.758570  -7030.513162   -456.845928
PC43  15613.074862  -4549.774697 -22684.893765     59.474652
PC44  11018.635810  25603.995082    835.287485    377.165465
PC45 -14662.637496  23480.299296   3624.421657    -68.517960
PC46 -15999.427597  -5283.982969 -22264.541337   -121.863157
PC59      0.000000      0.000000      0.000000 999999.999999
PC60   7257.260843  41515.944623  -1032.064391     -0.297917
PE02  22896.510343   5241.069963  17987.909166    101.402831
PE03  24435.155777  15736.264215   5629.712715    -92.207369
PE04 -21055.914689   1075.638784 -20769.822157   -321.615415
PE05  13519.602541  23133.246361 -12572.632014   4717.717276
PE07   5785.877913 -16813.894004  23669.332988   -102.490867
PE08  21347.910903   -363.383630  20505.892901   -220.068087
PE09  -5789.180642  16639.744794 -23784.520756   -327.322940
PE10 -14276.201492  20320.904498  16105.430719   -600.075710
PE11  -9571.467607  27165.859683   6778.444775   3259.148765
PE12 -16503.695494  11114.565416  21909.350735   -895.892129
PE13   9887.634895 -26893.305180  -7446.457551    -20.115027
PE14  25218.426815  19242.380341  -3705.004298     32.484004
PE15  16472.694299 -10587.380317 -22190.669117    -84.449275
PE18 -16830.777386 -17272.658736   -904.157681    298.957359
PE19 -23750.412176 -17318.826840  -3504.641064   -662.121345
PE21  -5086.387043 -16039.140277 -24360.737293   -577.782449
PE24 -16947.467265  17873.127287  16414.507932   -584.769239
PE25   4623.526062  16187.349786  24343.617259      0.552999
PE26  -2855.074468 -26949.151970  11922.727735    361.708243
PE27  16480.182518 -17984.847030 -16762.032683   -268.625798
PE30  28151.760005  -9073.059302    841.365081   -887.185630
PE31 -28097.874365   9305.928430   -637.866057    -15.456117
PE33 -13084.864398 -12284.021659  23546.078739      7.208316
PE34  13331.235021  11666.392584 -23712.483055    -93.282964
PE36   2356.735414  27208.862997 -11389.493198   -182.553810
PG01 -12142.514186  19661.782761  12456.034623    168.609997
PG02 -14161.947342  12820.015643  18847.020756   -489.217572
PG03 -22985.292574  12138.397308  -5292.819437    177.438548
PG04 -14503.802565   6749.421291 -21208.547398    285.624190
PG05  25117.449750  -5231.697976  -7217.589291   -160.882037
PG06   7071.743216  19797.644002 -16093.778354    416.505879
PG07  -5016.293810  25786.360539   -735.185500    -56.097853
PG08 -20433.519503   -627.737798  17085.957464   -165.846941
PG09  -2148.607357  16752.632304 -20567.181802     84.052289
PG10  -6306.567863 -13478.778202  22214.513211    -72.354612
PG11  13103.591590   8889.876922 -21305.719578   -567.447307
PG12  23814.944958 -10629.737174  -5117.720969   -475.576378
PG13  21005.348388  11075.916691  11919.488868    623.261133
PG14   1913.502231  15631.940146  21394.521739    319.302817
PG15  20516.924153  -1700.542245  16402.541174    125.178412
PG16 -23866.667873  -2354.473442 -12232.916725   -367.949969
PG17   9326.507844  21234.521676  13229.818424    717.736884
PG18   4965.809081 -25988.992739     22.315439   -550.136345
PG19  16403.828643  20738.597162   3893.383846    437.274202
PG20  19261.185305   3479.720137 -17817.345783    388.420564
PG21 -15242.432078   6482.159674  21031.982235    135.796891
PG22   9639.106700  12933.273245  21484.739355     35.247180
PG23   7505.556486 -16850.713089  19059.372743    151.052767
PG24  14699.541999 -10935.364351  18677.356312   -427.636617
PG25  15553.320964 -16587.785937 -13834.574132    487.826095
PG26 -16814.007581  -8016.307304 -19205.033587    192.758834
PG27 -22672.607583 -12028.010653   7383.068344     -1.848689
PG28  -6622.870591 -21794.309657 -13684.502998   -122.994470
PG29   4830.073555 -15368.680073 -21146.583988   -607.425184
PG30   2422.358374  24753.061030   9057.523844   -435.732678
PG31 -11619.116713 -13542.448269 -19755.619340   -227.683521
PG32 -13641.463952 -20515.481739  10390.538594   -610.239813
PJ02 -31785.424449  24954.812607  17107.219576     -1.770533
PJ03 -27213.905208  26611.813052  23294.397032     -0.215477
PJ04 -27292.468832  22009.301334 -18443.405323     50.967596
PJ07 -25410.899525  33642.555405    -42.113966     -0.006509
PR01   4398.085869 -10117.296270  23004.636951     76.530703
PR02 -13652.771674 -12975.850596  17286.299061    -22.454971
PR03 -24047.147776  -8460.427940   1637.454472     94.064298
PR04 -20925.762260    228.749625 -14564.780078    222.379705
PR05  -6687.937140   8956.091417 -22915.658546    126.525014
PR06  15128.128678  12412.444085 -16356.549431   -149.647371
PR07  24176.459736   8020.637705   -594.328506     75.276503
PR08  20754.404084   -678.727224  14852.347385    -74.318918
PR09   1079.707830  13782.232959  21432.023242    168.645769
PR10  12952.920930   2223.010736  21830.062295   -119.728517
PR11  20032.150476 -12286.927470   9943.183161     35.131142
PR12  14073.149537 -19099.748331  -9331.892250     36.477740
PR13   1439.960307 -15002.179890 -20599.057007    -44.108765
PR14 -14438.461064   -477.187596 -21014.608183     26.029971
PR15 -20197.137563  13036.046842  -8517.578229     82.418705
PR16 -14174.221951  19129.098456   9114.938306     23.088354
PR17 -11550.760284 -12252.403119  19158.721357     59.193799
PR18  -9564.023399   5216.074639  23078.970306    126.145025
PR19  -4161.500296  19087.263758  16403.902367   -264.888528
PR20   5714.200523  24586.541317  -3490.286517   -107.912492
PR21  11404.408253  12115.761932 -19337.641600    -75.045301
PR22   9792.933764  -6243.537335 -22683.634574    106.914654
PR23   2006.466835 -21533.747570 -13537.635839   -111.215017
PR24  -7058.958085 -24168.711050   4083.465714    -42.933153
PR25  11291.750964  12610.993245 -19080.367406     89.093017
PR26  21310.380473   -239.618603  14056.489682   -199.585127
EOF
